NORAD_CAT_ID,OBJECT_NAME,OBJECT_TYPE,EPOCH,MEAN_MOTION,ECCENTRICITY,INCLINATION,RA_OF_ASC_NODE,ARG_OF_PERICENTER,MEAN_ANOMALY,BSTAR,MEAN_MOTION_DOT,MEAN_MOTION_DDOT,TLE_LINE0,TLE_LINE1,TLE_LINE2,SEMIMAJOR_AXIS,PERIOD,APOGEE,PERIGEE,DECAYED
55777.0,STARLINK-5814,PAYLOAD,2023-08-04 17:58:06,14.9833168,0.0002929,69.9997,94.4334,264.5179,95.5646,5.2389e-07,-8.7e-07,0.0,0 STARLINK-5814,1 55777U 23028AN  23216.74868561 -.00000087  00000-0  52389-6 0  9994,2 55777  69.9997  94.4334 0002929 264.5179  95.5646 14.98331680 24548,6950.188,96.107,574.088,570.017,0.0
55777.0,STARLINK-5814,PAYLOAD,2023-08-05 18:00:06,14.98333458,0.0002913,69.9992,91.9077,262.9917,97.0911,0.00011943,1.332e-05,0.0,0 STARLINK-5814,1 55777U 23028AN  23217.75007852  .00001332  00000-0  11943-3 0  9995,2 55777  69.9992  91.9077 0002913 262.9917  97.0911 14.98333458 24697,6950.182,96.107,574.072,570.023,0.0
55777.0,STARLINK-5814,PAYLOAD,2023-08-06 08:25:20,14.98325025,0.0002907,69.9994,90.3922,268.1255,91.9571,-4.4146e-05,-6.2e-06,0.0,0 STARLINK-5814,1 55777U 23028AN  23218.35092640 -.00000620  00000-0 -44146-4 0  9994,2 55777  69.9994  90.3922 0002907 268.1255  91.9571 14.98325025 24783,6950.208,96.107,574.094,570.053,0.0
55777.0,STARLINK-5814,PAYLOAD,2023-08-06 18:02:09,14.98318665,0.0002651,69.9996,89.3836,259.4422,100.6438,-0.00015488,-1.94e-05,0.0,0 STARLINK-5814,1 55777U 23028AN  23218.75149528 -.00001940  00000-0 -15488-3 0  9998,2 55777  69.9996  89.3836 0002651 259.4422 100.6438 14.98318665 24841,6950.228,96.108,573.935,570.25,0.0
55777.0,STARLINK-5814,PAYLOAD,2023-08-07 18:04:09,14.98330074,0.0002813,69.9995,86.8581,267.6236,92.4601,-0.00010169,-1.306e-05,0.0,0 STARLINK-5814,1 55777U 23028AN  23219.75289246 -.00001306  00000-0 -10169-3 0  9998,2 55777  69.9995  86.8581 0002813 267.6236  92.4601 14.98330074 24997,6950.193,96.107,574.013,570.103,0.0
55777.0,STARLINK-5814,PAYLOAD,2023-08-08 21:18:26,14.9832958,0.0003084,69.9988,83.995,270.7734,89.3072,0.000232,2.676e-05,0.0,0 STARLINK-5814,1 55777U 23028AN  23220.88780501  .00002676  00000-0  23200-3 0  9993,2 55777  69.9988  83.9950 0003084 270.7734  89.3072 14.98329580 25163,6950.194,96.107,574.203,569.916,0.0
55777.0,STARLINK-5814,PAYLOAD,2023-08-10 02:08:51,14.98335294,0.0003015,69.9988,80.9647,269.2353,90.846,5.7698e-05,5.96e-06,0.0,0 STARLINK-5814,1 55777U 23028AN  23222.08948503  .00000596  00000-0  57698-4 0  9993,2 55777  69.9988  80.9647 0003015 269.2353  90.8460 14.98335294 25344,6950.177,96.107,574.137,569.946,0.0
55777.0,STARLINK-5814,PAYLOAD,2023-08-11 02:10:52,14.98339314,0.0002981,69.9985,78.4397,268.2572,91.8246,-2.7428e-05,-4.2e-06,0.0,0 STARLINK-5814,1 55777U 23028AN  23223.09087999 -.00000420  00000-0 -27428-4 0  9994,2 55777  69.9985  78.4397 0002981 268.2572  91.8246 14.98339314 25494,6950.164,96.106,574.101,569.957,0.0
55777.0,STARLINK-5814,PAYLOAD,2023-08-11 18:12:13,14.98330375,0.0002958,69.9987,76.7563,268.9142,91.1678,-4.0327e-05,-5.74e-06,0.0,0 STARLINK-5814,1 55777U 23028AN  23223.75848398 -.00000574  00000-0 -40327-4 0  9998,2 55777  69.9987  76.7563 0002958 268.9142  91.1678 14.98330375 25597,6950.192,96.107,574.113,570.001,0.0
55777.0,STARLINK-5814,PAYLOAD,2023-08-13 19:52:22,14.98327403,0.0002967,69.999,71.5381,266.3549,93.7271,-2.2323e-05,-3.59e-06,0.0,0 STARLINK-5814,1 55777U 23028AN  23225.82804253 -.00000359  00000-0 -22323-4 0  9997,2 55777  69.9990  71.5381 0002967 266.3549  93.7271 14.98327403 25905,6950.201,96.107,574.128,570.004,0.0
55777.0,STARLINK-5814,PAYLOAD,2023-08-14 19:54:23,14.98328854,0.000316,69.9989,69.0131,269.4789,90.6008,-1.0579e-05,-2.19e-06,0.0,0 STARLINK-5814,1 55777U 23028AN  23226.82944130 -.00000219  00000-0 -10579-4 0  9992,2 55777  69.9989  69.0131 0003160 269.4789  90.6008 14.98328854 26056,6950.196,96.107,574.258,569.865,0.0
55777.0,STARLINK-5814,PAYLOAD,2023-08-15 23:08:40,14.98330627,0.00031,69.9991,66.1511,268.7082,91.3722,2.9419e-05,2.58e-06,0.0,0 STARLINK-5814,1 55777U 23028AN  23227.96435852  .00000258  00000-0  29419-4 0  9998,2 55777  69.9991  66.1511 0003100 268.7082  91.3722 14.98330627 26222,6950.191,96.107,574.211,569.901,0.0
55777.0,STARLINK-5814,PAYLOAD,2023-08-17 00:46:49,14.98332855,0.0003097,69.9992,63.4577,269.2776,90.8028,2.3443e-05,1.87e-06,0.0,0 STARLINK-5814,1 55777U 23028AN  23229.03251603  .00000187  00000-0  23443-4 0  9990,2 55777  69.9992  63.4577 0003097 269.2776  90.8028 14.98332855 26381,6950.184,96.107,574.202,569.897,0.0
55777.0,STARLINK-5814,PAYLOAD,2023-08-18 00:48:50,14.98331692,0.0003116,69.9983,60.9324,269.2199,90.8603,-2.2432e-05,-3.61e-06,0.0,0 STARLINK-5814,1 55777U 23028AN  23230.03391682 -.00000361  00000-0 -22432-4 0  9997,2 55777  69.9983  60.9324 0003116 269.2199  90.8603 14.98331692 26538,6950.188,96.107,574.218,569.887,0.0
55777.0,STARLINK-5814,PAYLOAD,2023-08-19 05:39:15,14.9833017,0.0003034,69.9986,57.9023,270.3609,89.7202,-2.0948e-05,-3.43e-06,0.0,0 STARLINK-5814,1 55777U 23028AN  23231.23559771 -.00000343  00000-0 -20948-4 0  9995,2 55777  69.9986  57.9023 0003034 270.3609  89.7202 14.98330170 26713,6950.192,96.107,574.166,569.949,0.0
55777.0,STARLINK-5814,PAYLOAD,2023-08-20 18:30:21,14.98329993,0.0002958,70.0001,54.0319,267.081,93.001,9.8129e-06,2.4e-07,0.0,0 STARLINK-5814,1 55777U 23028AN  23232.77107776  .00000024  00000-0  98129-5 0  9990,2 55777  70.0001  54.0319 0002958 267.0810  93.0010 14.98329993 26942,6950.193,96.107,574.114,570.002,0.0
55777.0,STARLINK-5814,PAYLOAD,2023-08-21 18:32:22,14.98327845,0.0002977,70.0001,51.5059,266.4363,93.6455,-1.2548e-05,-2.43e-06,0.0,0 STARLINK-5814,1 55777U 23028AN  23233.77247942 -.00000243  00000-0 -12548-4 0  9996,2 55777  70.0001  51.5059 0002977 266.4363  93.6455 14.98327845 27092,6950.2,96.107,574.134,569.995,0.0
55777.0,STARLINK-5814,PAYLOAD,2023-08-23 12:11:51,14.98328682,0.0003065,69.9999,47.129,267.8529,92.2279,3.7172e-05,3.51e-06,0.0,0 STARLINK-5814,1 55777U 23028AN  23235.50823702  .00000351  00000-0  37172-4 0  9991,2 55777  69.9999  47.1290 0003065 267.8529  92.2279 14.98328682 27359,6950.197,96.107,574.192,569.932,0.0
55777.0,STARLINK-5814,PAYLOAD,2023-08-24 12:13:52,14.98332148,0.0002927,70.0007,44.6047,265.8297,94.2528,2.5642e-05,2.13e-06,0.0,0 STARLINK-5814,1 55777U 23028AN  23236.50963428  .00000213  00000-0  25642-4 0  9998,2 55777  70.0007  44.6047 0002927 265.8297  94.2528 14.98332148 27508,6950.186,96.107,574.086,570.017,0.0
55777.0,STARLINK-5814,PAYLOAD,2023-08-25 13:52:01,14.98329593,0.0002999,70.0006,41.9117,266.0627,94.0189,-3.3781e-05,-4.96e-06,0.0,0 STARLINK-5814,1 55777U 23028AN  23237.57779647 -.00000496  00000-0 -33781-4 0  9992,2 55777  70.0006  41.9117 0002999 266.0627  94.0189 14.98329593 27662,6950.194,96.107,574.144,569.975,0.0
55777.0,STARLINK-5814,PAYLOAD,2023-08-25 18:40:25,14.98329566,0.0003,70.0006,41.4066,265.7009,94.3807,-3.1708e-05,-4.71e-06,0.0,0 STARLINK-5814,1 55777U 23028AN  23237.77807636 -.00000471  00000-0 -31708-4 0  9994,2 55777  70.0006  41.4066 0003000 265.7009  94.3807 14.98329566 27697,6950.194,96.107,574.144,569.974,0.0
55777.0,STARLINK-5814,PAYLOAD,2023-08-25 20:16:33,14.98329538,0.0003007,70.0006,41.2383,265.9888,94.0927,-3.2289e-05,-4.78e-06,0.0,0 STARLINK-5814,1 55777U 23028AN  23237.84483639 -.00000478  00000-0 -32289-4 0  9997,2 55777  70.0006  41.2383 0003007 265.9888  94.0927 14.98329538 27702,6950.194,96.107,574.149,569.969,0.0
55777.0,STARLINK-5814,PAYLOAD,2023-08-26 12:17:54,14.98329162,0.0003089,70.0003,39.555,268.7544,91.3261,-2.4945e-05,-3.91e-06,0.0,0 STARLINK-5814,1 55777U 23028AN  23238.51243637 -.00000391  00000-0 -24945-4 0  9998,2 55777  70.0003  39.5550 0003089 268.7544  91.3261 14.98329162 27800,6950.195,96.107,574.207,569.914,0.0
55777.0,STARLINK-5814,PAYLOAD,2023-08-26 20:18:34,14.98334063,0.0002908,70.0002,38.7121,267.6696,92.413,-1.6393e-05,-2.89e-06,0.0,0 STARLINK-5814,1 55777U 23028AN  23238.84623240 -.00000289  00000-0 -16393-4 0  9990,2 55777  70.0002  38.7121 0002908 267.6696  92.4130 14.98334063 27857,6950.18,96.107,574.066,570.024,0.0
55777.0,STARLINK-5814,PAYLOAD,2023-08-27 05:55:23,14.98328201,0.000307,70.0,37.7025,267.1527,92.9281,8.1588e-06,4e-08,0.0,0 STARLINK-5814,1 55777U 23028AN  23239.24679530  .00000004  00000-0  81588-5 0  9990,2 55777  70.0000  37.7025 0003070 267.1527  92.9281 14.98328201 27912,6950.198,96.107,574.197,569.93,0.0
55777.0,STARLINK-5814,PAYLOAD,2023-08-27 20:20:35,14.9833332,0.0003161,70.0003,36.1876,269.4241,90.6555,5.3739e-05,5.48e-06,0.0,0 STARLINK-5814,1 55777U 23028AN  23239.84763070  .00000548  00000-0  53739-4 0  9998,2 55777  70.0003  36.1876 0003161 269.4241  90.6555 14.98333320 28009,6950.183,96.107,574.245,569.851,0.0
55777.0,STARLINK-5814,PAYLOAD,2023-08-28 17:10:17,14.98359791,0.0002775,70.0011,33.996,271.2955,88.7886,0.00028972,3.368e-05,0.0,0 STARLINK-5814,1 55777U 23028AN  23240.71548339  .00003368  00000-0  28972-3 0  9998,2 55777  70.0011  33.9960 0002775 271.2955  88.7886 14.98359791 28139,6950.101,96.105,573.894,570.037,0.0
55777.0,STARLINK-5814,PAYLOAD,2023-08-28 20:22:36,14.98327009,0.000314,70.0004,33.6625,272.4069,87.673,-8.5865e-05,-1.117e-05,0.0,0 STARLINK-5814,1 55777U 23028AN  23240.84903217 -.00001117  00000-0 -85865-4 0  9999,2 55777  70.0004  33.6625 0003140 272.4069  87.6730 14.98327009 28157,6950.202,96.107,574.25,569.885,0.0
55777.0,STARLINK-5814,PAYLOAD,2023-08-29 20:24:37,14.98330476,0.000312,70.0006,31.1379,272.8713,87.2089,-4.4626e-05,-6.25e-06,0.0,0 STARLINK-5814,1 55777U 23028AN  23241.85042971 -.00000625  00000-0 -44626-4 0  9995,2 55777  70.0006  31.1379 0003120 272.8713  87.2089 14.98330476 28308,6950.191,96.107,574.225,569.888,0.0
55777.0,STARLINK-5814,PAYLOAD,2023-08-29 22:00:45,14.98331844,0.000313,70.0005,30.9699,272.4372,87.6428,-3.2715e-05,-4.83e-06,0.0,0 STARLINK-5814,1 55777U 23028AN  23241.91718845 -.00000483  00000-0 -32715-4 0  9990,2 55777  70.0005  30.9699 0003130 272.4372  87.6428 14.98331844 28319,6950.187,96.107,574.228,569.877,0.0
